#dP2024  8 30 18  0  0.00000000      96 __u+U IGS20 EXT  IAC
## 2329 496800.00000000   900.00000000 60552 0.7500000000000
+   54   G01G02G03G04G05G06G07G08G09G10G11G12G13G14G15G16G17
+        G18G19G20G21G22G23G24G25G26G27G28G29G30G31G32R01R02
+        R03R04R05R07R08R09R11R12R14R15R16R17R18R19R20R21R22
+        R24R25R26  0  0  0  0  0  0  0  0  0  0  0  0  0  0
+          0  0  0  0  0  0  0  0  0  0  0  0  0  0  0  0  0
++         6  7  7  8  8  7  9  7  7  8  6  7  9  8  8  9  8
++         9  8  6  6  8  6  7  8 10  7  6 10  8  9  7  9  9
++         8  9  7  8  7  8  8  9  8  8  8  7  9 10  8  9  9
++         7  9  8  0  0  0  0  0  0  0  0  0  0  0  0  0  0
++         0  0  0  0  0  0  0  0  0  0  0  0  0  0  0  0  0
%c M  cc GPS ccc cccc cccc cccc cccc ccccc ccccc ccccc ccccc
%c cc cc ccc ccc cccc cccc cccc cccc ccccc ccccc ccccc ccccc
%f  0.0000000  0.000000000  0.00000000000  0.000000000000000
%f  0.0000000  0.000000000  0.00000000000  0.000000000000000
%i    0    0    0    0      0      0      0      0         0
%i    0    0    0    0      0      0      0      0         0
/* IAC                                ULTRA-RAPID PREDICTION
/* S/V CLOCKS ARE ALIGNED TO GNSS TIME                      
/* G:C1WC2W R:C1PC2P E:C1XC5X C:C2IC6I J:C1CC2S             
/* PCV:IGS20_2317 OL/AL:FES2004  NONE     YN ORB:CoN CLK:CoN
*  2024 08 31 10 30  0.00000000
PG01      0.000000      0.000000      0.000000    207.907671
PG02  22907.799182  13719.238990   1860.204178   -367.853497
PG03  12932.010895   8812.410283  21312.260316    520.712866
PG04  22023.011501   2977.417818  14665.638720    434.720517
PG05  -6190.606467 -22728.458090 -12383.164206   -185.027167
PG06   5535.118691 -14058.434742  21896.512245     62.704262
PG07  20864.209373   1957.613686 -16054.771755    -43.898146
PG08  13149.272476  10431.964240 -20786.134473    335.847085
PG09  25187.074944  -6683.271103   5200.499571    336.729012
PG10 -10377.842484  21762.430812 -10543.413374   -110.373591
PG11  -8358.775663 -20655.023488  14536.523915   -728.894366
PG12 -11413.666040 -12895.531102  19953.322405   -534.523177
PG13  -3787.176728 -14587.441658 -22096.541039    673.917614
PG14  13093.663956 -18628.841208 -13441.559680    484.892085
PG15 -14469.070897  -9269.663504 -20808.371118    198.841805
PG16    950.713003  24654.064778  -9549.025900   -193.755633
PG17  20298.719448 -14105.688351  10364.403207    640.308960
PG18 -20117.207652  -1327.513447 -17383.851105   -650.281668
PG19  13299.110789 -15535.594567  16556.760857    531.877288
PG20  -1638.921529 -26562.318006  -1191.344461    371.119167
PG21  20921.463684  16779.257018  -3687.639337    102.623353
PG22   9874.326504 -24092.881197  -5570.426267    -57.055050
PG23 -14482.486238  10437.304106 -19563.930354    309.637302
PG24 -21897.871825 -15394.956674  -1414.423490   -486.770921
PG25 -15403.997883    282.954990  21281.634528    499.516217
PG26  -4519.606420  25665.029635   3793.455402     89.196120
PG27   1350.942387  15732.219097 -21595.986556    -33.582342
PG28  -7598.859318  13234.550305  21726.933967   -393.551644
PG29 -25296.761950   2057.747665   8004.280437   -580.810450
PG30  14003.431161  -8454.779431 -20811.453350   -330.080409
PG31   3795.469231  19264.680444  17478.166487   -225.267184
PG32 -18365.670630  15701.422177  11009.298925   -601.427108
PR01 -12407.388294  19349.223926  11066.124985     96.236638
PR02   1049.036691  12825.569800  22049.678313    -24.408267
PR03  14966.810862   -557.631190  20706.935501    106.669214
PR04  20304.202507 -13102.681749   8219.611333    252.472004
PR05  14983.421585 -18734.300880  -8705.286578    136.939883
PR07 -15242.873633   1003.528553 -20376.580549     89.923182
PR08 -20168.413134  13428.297796  -7859.536693     -6.395622
PR09  -8060.847140 -23870.095200   3716.760240    206.454336
PR11 -10285.573075   4021.699824  23008.032197     13.161009
PR12  -1856.569586  21452.017983  13697.423612     44.284087
PR14  12209.345562  12822.659057 -18354.939233     26.884702
PR15   9916.920993  -5802.337329 -22748.541348     76.321323
PR16   1766.918623 -21321.867987 -13845.462066     28.719569
PR17  23966.757758   8499.453913  -1609.225950    117.908126
PR18  21224.471273    361.886412  14188.518508    159.723433
PR19   9703.829795  -7117.070534  22488.848763   -289.622624
PR20 -12152.437695 -13181.851829  18140.177028   -118.443510
PR21 -23784.187344  -8990.093939   2279.769161   -130.515815
PR22 -20634.180996     55.256006 -14967.304312     57.842191
PR24  13133.524478  12943.570034 -17593.728046    -70.080418
PR25 -23735.781347  -9300.571617   1262.255214   -101.049215
PR26 -20100.388160  12632.926960  -9340.854813     14.798963
*  2024 08 31 10 45  0.00000000
PG01      0.000000      0.000000      0.000000    207.885812
PG02  22794.748617  13898.467288   -989.179919   -367.846436
PG03  12586.060428  11200.703813  20395.114402    520.725569
PG04  20419.540239   3774.764108  16655.751828    434.727073
PG05  -5914.334333 -23963.034563  -9899.106318   -185.028333
PG06   7534.099356 -12551.060970  22223.560305     62.681537
PG07  22190.610179   3180.676231 -14060.914100    -43.893483
PG08  11011.775121  11496.914094 -21421.524998    335.859436
PG09  24599.299276  -6142.538379   7916.956891    336.743295
PG10 -10397.294056  20365.364295 -13010.445942   -110.384138
PG11  -6885.689819 -19660.166042  16547.197859   -728.898724
PG12 -10882.896370 -15099.387678  18685.142313   -534.525796
PG13  -1399.894749 -15214.239327 -21931.051689    673.919550
PG14  13096.054503 -16935.656718 -15531.316873    484.899856
PG15 -12541.879696 -10556.824709 -21436.912337    198.845707
PG16    510.051290  25493.045602  -6880.727774   -193.746372
PG17  21285.424807 -14255.049774   7759.451287    640.299540
PG18 -21518.905623  -2576.859125 -15481.149711   -650.284035
PG19  15093.393021 -15892.357170  14540.762667    531.881824
PG20  -1377.347811 -26560.104709   1643.593840    371.118815
PG21  20312.425083  16610.617505  -6408.096407    102.622744
PG22   9928.373028 -23229.339257  -8259.484985    -57.058621
PG23 -14368.011568   8126.592917 -20727.913549    309.644980
PG24 -21515.929983 -15506.815341  -4169.658755   -486.771111
PG25 -15176.992775  -2223.022325  21352.696067    499.516325
PG26  -4861.750702  25036.349961   6523.620870     89.188814
PG27   -854.522018  16624.141850 -20895.857976    -33.582630
PG28  -9642.671236  11814.341882  21734.912245   -393.564567
PG29 -24354.516610   1521.984687  10598.746960   -580.808380
PG30  15859.470291  -6975.424985 -20043.217217   -330.074145
PG31   2001.153290  18081.321999  18990.939771   -225.266764
PG32 -19457.228333  15930.723307   8439.597331   -601.424179
PR01 -13134.043998  20296.495182   8148.306839     96.237743
PR02   -815.726900  14696.932166  20851.522924    -24.408444
PR03  13046.761749   1227.696384  21937.358655    106.669883
PR04  19328.762064 -12397.739719  11149.030471    252.473609
PR05  15505.257440 -19470.903890  -5638.552768    136.940422
PR07 -13332.914355   -770.260739 -21686.195674     89.923885
PR08 -19234.667961  12722.691509 -10805.301961     -6.395558
PR09  -8215.196094 -24095.968688    540.582774    206.456074
PR11 -11021.979826   1285.029059  22980.989879     13.160028
PR12  -2225.143095  19651.139274  16133.865383     44.284510
PR14  12844.063809  14865.568972 -16265.901474     26.884756
PR15  10624.900869  -3066.699444 -22961.705268     76.320998
PR16   2137.496247 -19492.565336 -16276.640531     28.719832
PR17  23634.756077   8211.880098  -4813.488551    117.910911
PR18  22790.459592    650.207164  11493.105292    159.725067
PR19  12301.054488  -6324.615439  21428.791462   -289.623891
PR20  -9959.269559 -12311.692974  19996.531316   -118.443984
PR21 -23382.963590  -8661.038518   5469.104870   -130.518636
PR22 -22280.319965   -356.259623 -12384.956041     57.834716
PR24  10952.557744  12228.418785 -19495.797171    -70.081815
PR25 -23448.277322  -9049.973416   4447.674941   -101.049154
PR26 -19050.332904  11802.469741 -12187.255809     14.805148
EOF
